NORAD_CAT_ID,OBJECT_NAME,OBJECT_TYPE,EPOCH,MEAN_MOTION,ECCENTRICITY,INCLINATION,RA_OF_ASC_NODE,ARG_OF_PERICENTER,MEAN_ANOMALY,BSTAR,MEAN_MOTION_DOT,MEAN_MOTION_DDOT,TLE_LINE0,TLE_LINE1,TLE_LINE2,SEMIMAJOR_AXIS,PERIOD,APOGEE,PERIGEE,DECAYED
53037.0,STARLINK-4153,PAYLOAD,2022-08-05 06:00:02,15.73210182,0.0002174,53.218,237.499,26.787,115.5006,-1.0929000000000003e-05,-2.156e-05,0.0,0 STARLINK-4153,1 53037U 22076BD  22217.25002315 -.00002156  00000-0 -10929-4 0  9998,2 53037  53.2180 237.4990 0002174  26.7870 115.5006 15.73210182  5000,6727.866,91.533,351.194,348.269,0.0
53037.0,STARLINK-4153,PAYLOAD,2022-08-05 14:00:01,15.73246445,0.0002225,53.2178,235.8504,22.8055,208.4245,-0.00031118,-0.00044157,0.0,0 STARLINK-4153,1 53037U 22076BD  22217.58335648 -.00044157  00000-0 -31118-3 0  9991,2 53037  53.2178 235.8504 0002225  22.8055 208.4245 15.73246445  1306,6727.763000000001,91.53,351.125,348.131,0.0
53037.0,STARLINK-4153,PAYLOAD,2022-08-05 20:38:41,15.73232919,0.0002241,53.2183,234.4792,29.4372,330.6774,0.00011228,0.00015188,0.0,0 STARLINK-4153,1 53037U 22076BD  22217.86020405  .00015188  00000-0  11228-3 0  9994,2 53037  53.2183 234.4792 0002241  29.4372 330.6774 15.73232919  5107,6727.801,91.531,351.1740000000001,348.159,0.0
53037.0,STARLINK-4153,PAYLOAD,2022-08-05 22:00:00,15.73156271,0.0002016,53.2182,234.1993,24.1934,295.9523,0.00056653,0.00079498,0.0,0 STARLINK-4153,1 53037U 22076BD  22217.91667824  .00079498  00000-0  56653-3 0  9997,2 53037  53.2182 234.1993 0002016  24.1934 295.9523 15.73156271  1301,6728.02,91.536,351.241,348.528,0.0
53037.0,STARLINK-4153,PAYLOAD,2022-08-06 05:47:34,15.7321263,0.0001940999999999,53.2181,232.5928,27.7151,332.3973,4.6344e-05,5.891e-05,0.0,0 STARLINK-4153,1 53037U 22076BD  22218.24137529  .00005891  00000-0  46344-4 0  9991,2 53037  53.2181 232.5928 0001941  27.7151 332.3973 15.73212630  5161,6727.859,91.532,351.03,348.418,0.0
53037.0,STARLINK-4153,PAYLOAD,2022-08-06 14:00:01,15.73220819,0.000226,53.2179,230.9019,18.4622,119.5413,-0.00032117,-0.00045498,0.0,0 STARLINK-4153,1 53037U 22076BD  22218.58334491 -.00045498  00000-0 -32117-3 0  9996,2 53037  53.2179 230.9019 0002260  18.4622 119.5413 15.73220819  1300,6727.8359999999975,91.532,351.221,348.18,0.0
53037.0,STARLINK-4153,PAYLOAD,2022-08-06 22:00:00,15.73164272,0.0001973,53.2178,229.2507,19.9763,206.9645,0.00054203,0.00076027,0.0,0 STARLINK-4153,1 53037U 22076BD  22218.91667824  .00076027  00000-0  54203-3 0  9992,2 53037  53.2178 229.2507 0001973  19.9763 206.9645 15.73164272  5261,6727.996999999999,91.535,351.189,348.535,0.0
53037.0,STARLINK-4153,PAYLOAD,2022-08-07 14:00:01,15.73190127,0.0002346999999999,53.2175,225.9539,24.4339,20.3699,2.7151e-05,3.189e-05,0.0,0 STARLINK-4153,1 53037U 22076BD  22219.58334491  .00003189  00000-0  27151-4 0  9999,2 53037  53.2175 225.9539 0002347  24.4339  20.3699 15.73190127  5379,6727.9230000000025,91.534,351.367,348.209,0.0
53037.0,STARLINK-4153,PAYLOAD,2022-08-07 22:00:00,15.73181856,0.0002109999999999,53.2178,224.3025,28.6739,105.064,0.00058137,0.00081708,0.0,0 STARLINK-4153,1 53037U 22076BD  22219.91667824  .00081708  00000-0  58137-3 0  9995,2 53037  53.2178 224.3025 0002110  28.6739 105.0640 15.73181856  1308,6727.946999999999,91.534,351.232,348.392,0.0
53037.0,STARLINK-4153,PAYLOAD,2022-08-08 06:00:00,15.73281193,0.0002278999999999,53.2179,222.6548,26.5453,196.1474,-0.00061445,-0.00086286,0.0,0 STARLINK-4153,1 53037U 22076BD  22220.25001157 -.00086286  00000-0 -61445-3 0  9999,2 53037  53.2179 222.6548 0002279  26.5453 196.1474 15.73281193  5479,6727.6640000000025,91.528,351.06199999999984,347.995,0.0
53037.0,STARLINK-4153,PAYLOAD,2022-08-08 14:00:01,15.73265244,0.0002234999999999,53.2174,221.0052,20.1721,291.582,-0.00020976,-0.00030041,0.0,0 STARLINK-4153,1 53037U 22076BD  22220.58335648 -.00030041  00000-0 -20976-3 0  9992,2 53037  53.2174 221.0052 0002235  20.1721 291.5820 15.73265244  1309,6727.709,91.529,351.07800000000015,348.071,0.0
53037.0,STARLINK-4153,PAYLOAD,2022-08-08 17:15:16,15.73261002,0.0002114,53.2177,220.3334,23.8403,336.2714,0.00020375,0.00028146,0.0,0 STARLINK-4153,1 53037U 22076BD  22220.71894104  .00028146  00000-0  20375-3 0  9998,2 53037  53.2177 220.3334 0002114  23.8403 336.2714 15.73261002  5558,6727.721,91.53,351.009,348.164,0.0
53037.0,STARLINK-4153,PAYLOAD,2022-08-08 22:00:00,15.73230809,0.000198,53.2174,219.354,23.3616,17.3363,8.6108e-06,5.89e-06,0.0,0 STARLINK-4153,1 53037U 22076BD  22220.91667824  .00000589  00000-0  86108-5 0  9996,2 53037  53.2174 219.3540 0001980  23.3616  17.3363 15.73230809  1300,6727.807,91.531,351.004,348.34,0.0
53037.0,STARLINK-4153,PAYLOAD,2022-08-09 06:00:00,15.73219396,0.0002208,53.2172,217.7065,23.1497,106.4984,-0.00075248,-0.00105019,0.0,0 STARLINK-4153,1 53037U 22076BD  22221.25001157 -.00105019  00000-0 -75248-3 0  9992,2 53037  53.2172 217.7065 0002208  23.1497 106.4984 15.73219396  5638,6727.84,91.532,351.19,348.219,0.0
53037.0,STARLINK-4153,PAYLOAD,2022-08-09 14:00:01,15.73141482,0.0002256999999999,53.217,216.0569,23.68,194.8679,-0.00025829,-0.00036626,0.0,0 STARLINK-4153,1 53037U 22076BD  22221.58334491 -.00036626  00000-0 -25829-3 0  9995,2 53037  53.2170 216.0569 0002257  23.6800 194.8679 15.73141482  1306,6728.062,91.537,351.446,348.408,0.0
53037.0,STARLINK-4153,PAYLOAD,2022-08-09 22:00:00,15.73096105,0.0002118,53.2174,214.4058,30.0437,277.3391,0.00062642,0.00087829,0.0,0 STARLINK-4153,1 53037U 22076BD  22221.91667824  .00087829  00000-0  62642-3 0  9994,2 53037  53.2174 214.4058 0002118  30.0437 277.3391 15.73096105  5739,6728.191,91.539,351.481,348.631,0.0
53037.0,STARLINK-4153,PAYLOAD,2022-08-10 14:00:01,15.73203514,0.000233,53.2173,211.1087,28.023000000000003,97.1005,5.2898e-05,6.809999999999999e-05,0.0,0 STARLINK-4153,1 53037U 22076BD  22222.58334491  .00006810  00000-0  52898-4 0  9993,2 53037  53.2173 211.1087 0002330  28.0230  97.1005 15.73203514  1301,6727.885,91.533,351.3180000000001,348.18300000000005,0.0
53037.0,STARLINK-4153,PAYLOAD,2022-08-10 17:07:18,15.73215036,0.0002179,53.2175,210.4642,28.7546,113.4449,-5.2596e-05,-8.001e-05,0.0,0 STARLINK-4153,1 53037U 22076BD  22222.71341435 -.00008001  00000-0 -52596-4 0  9995,2 53037  53.2175 210.4642 0002179  28.7546 113.4449 15.73215036  5861,6727.852,91.532,351.18300000000005,348.251,0.0
53037.0,STARLINK-4153,PAYLOAD,2022-08-10 22:00:00,15.73218235,0.0002048,53.2174,209.4578,29.5773,184.4841,-0.0001776,-0.00025492,0.0,0 STARLINK-4153,1 53037U 22076BD  22222.91667824 -.00025492  00000-0 -17760-3 0  9996,2 53037  53.2174 209.4578 0002048  29.5773 184.4841 15.73218235  1305,6727.843000000003,91.532,351.086,348.33,0.0
53037.0,STARLINK-4153,PAYLOAD,2022-08-11 06:00:02,15.73204399,0.0002171,53.2173,207.8104,23.1573,279.8926,-0.0005725,-0.0008022999999999,0.0,0 STARLINK-4153,1 53037U 22076BD  22223.25002315 -.00080230  00000-0 -57250-3 0  9991,2 53037  53.2173 207.8104 0002171  23.1573 279.8926 15.73204399  5949,6727.8830000000025,91.533,351.208,348.287,0.0
53037.0,STARLINK-4153,PAYLOAD,2022-08-11 14:00:01,15.73168107,0.0002106,53.2173,206.1604,19.1257,12.7607,8.0669e-05,0.000107,0.0,0 STARLINK-4153,1 53037U 22076BD  22223.58334491  .00010700  00000-0  80669-4 0  9994,2 53037  53.2173 206.1604 0002106  19.1257  12.7607 15.73168107  1300,6727.986,91.535,351.26800000000014,348.434,0.0
53037.0,STARLINK-4153,PAYLOAD,2022-08-11 22:00:00,15.73173417,0.0001921999999999,53.2178,204.5095,24.3276,96.4528,0.00053136,0.00074534,0.0,0 STARLINK-4153,1 53037U 22076BD  22223.91667824  .00074534  00000-0  53136-3 0  9993,2 53037  53.2178 204.5095 0001922  24.3276  96.4528 15.73173417  6053,6727.971,91.535,351.129,348.543,0.0
53037.0,STARLINK-4153,PAYLOAD,2022-08-12 14:00:01,15.73310258,0.0002068,53.2179,201.2118,19.7528,278.9234,-0.00057962,-0.00081574,0.0,0 STARLINK-4153,1 53037U 22076BD  22224.58334491 -.00081574  00000-0 -57962-3 0  9993,2 53037  53.2179 201.2118 0002068  19.7528 278.9234 15.73310258  1304,6727.581,91.527,350.837,348.055,0.0
53037.0,STARLINK-4153,PAYLOAD,2022-08-12 20:00:01,15.7321876,0.0001911999999999,53.218,199.9734,20.7582,254.7619,0.00046633,0.00065392,0.0,0 STARLINK-4153,1 53037U 22076BD  22224.83335648  .00065392  00000-0  46633-3 0  9997,2 53037  53.2180 199.9734 0001912  20.7582 254.7619 15.73218760  6198,6727.842,91.532,350.99300000000005,348.42,0.0
53037.0,STARLINK-4153,PAYLOAD,2022-08-12 22:00:01,15.73243598,0.0001913,53.2182,199.5611,22.3494,5.4074,0.00018252,0.0002512,0.0,0 STARLINK-4153,1 53037U 22076BD  22224.91668981  .00025120  00000-0  18252-3 0  9996,2 53037  53.2182 199.5611 0001913  22.3494   5.4074 15.73243598  1302,6727.771,91.531,350.923,348.349,0.0
53037.0,STARLINK-4153,PAYLOAD,2022-08-13 06:00:02,15.73240872,0.0002162,53.218,197.9137,21.3536,95.3866,-0.00066868,-0.00093603,0.0,0 STARLINK-4153,1 53037U 22076BD  22225.25002315 -.00093603  00000-0 -66868-3 0  9996,2 53037  53.2180 197.9137 0002162  21.3536  95.3866 15.73240872  6267,6727.779,91.531,351.098,348.189,0.0
53037.0,STARLINK-4153,PAYLOAD,2022-08-13 14:00:01,15.73185305,0.0002101,53.2181,196.2634,23.009,182.6002,-0.000653,-0.0009122999999999,0.0,0 STARLINK-4153,1 53037U 22076BD  22225.58334491 -.00091230  00000-0 -65300-3 0  9999,2 53037  53.2181 196.2634 0002101  23.0090 182.6002 15.73185305  1300,6727.937,91.534,351.216,348.389,0.0
53037.0,STARLINK-4153,PAYLOAD,2022-08-13 22:00:00,15.73130609,0.0001985,53.2186,194.6129,29.8013,264.6758,0.00045612,0.00063692,0.0,0 STARLINK-4153,1 53037U 22076BD  22225.91667824  .00063692  00000-0  45612-3 0  9998,2 53037  53.2186 194.6129 0001985  29.8013 264.6758 15.73130609  1300,6728.093000000003,91.537,351.2940000000001,348.622,0.0
53037.0,STARLINK-4153,PAYLOAD,2022-08-14 14:00:01,15.73224383,0.0002125,53.2187,191.3154,27.9672,84.2942,0.00012098,0.00016409,0.0,0 STARLINK-4153,1 53037U 22076BD  22226.58334491  .00016409  00000-0  12098-3 0  9999,2 53037  53.2187 191.3154 0002125  27.9672  84.2942 15.73224383  1304,6727.826,91.532,351.12,348.261,0.0
